{
  "type": "FeatureCollection",
  "features": [
    {
      "type": "Feature",
      "properties": {
        "norad_id": 58701,
        "name": "TIANMU-1 16",
        "group": "weather",
        "lat": -71.57086108027993,
        "lon": -179.4956784790949,
        "alt_km": 498.31670178304375,
        "timestamp": "2025-12-02T10:50:46.915870+00:00",
        "meta_object_name": "TIANMU-1 16",
        "meta_object_id": "2024-004B",
        "meta_epoch": "2025-11-28T17:21:14.562144",
        "meta_mean_motion": 15.24146454,
        "meta_eccentricity": 0.00054689,
        "meta_inclination": 97.457,
        "meta_ra_of_asc_node": 153.6495,
        "meta_arg_of_pericenter": 351.9748,
        "meta_mean_anomaly": 8.1401,
        "meta_ephemeris_type": 0,
        "meta_classification_type": "U",
        "meta_norad_cat_id": 58701,
        "meta_element_set_no": 999,
        "meta_rev_at_epoch": 10521,
        "meta_bstar": 5.4123761e-05,
        "meta_mean_motion_dot": 1.245e-05,
        "meta_mean_motion_ddot": 0,
        "tle_line1": "1 58701U 24004B   25332.72308521  .00001245  00000+0  54124-4 0  9995",
        "tle_line2": "2 58701  97.4570 153.6495 0005468 351.9748   8.1401 15.24146454105217"
      },
      "geometry": {
        "type": "Point",
        "coordinates": [
          -179.4956784790949,
          -71.57086108027993
        ]
      }
    },
    {
      "type": "Feature",
      "properties": {
        "norad_id": 58702,
        "name": "TIANMU-1 17",
        "group": "weather",
        "lat": 10.052578822231169,
        "lon": 156.43311889559206,
        "alt_km": 492.0136114707184,
        "timestamp": "2025-12-02T10:50:46.915880+00:00",
        "meta_object_name": "TIANMU-1 17",
        "meta_object_id": "2024-004C",
        "meta_epoch": "2025-12-02T04:29:59.496288",
        "meta_mean_motion": 15.24254271,
        "meta_eccentricity": 0.0004421,
        "meta_inclination": 97.4601,
        "meta_ra_of_asc_node": 157.501,
        "meta_arg_of_pericenter": 343.4234,
        "meta_mean_anomaly": 16.6858,
        "meta_ephemeris_type": 0,
        "meta_classification_type": "U",
        "meta_norad_cat_id": 58702,
        "meta_element_set_no": 999,
        "meta_rev_at_epoch": 10573,
        "meta_bstar": 0.00036749,
        "meta_mean_motion_dot": 8.902e-05,
        "meta_mean_motion_ddot": 0,
        "tle_line1": "1 58702U 24004C   25336.18749417  .00008902  00000+0  36749-3 0  9992",
        "tle_line2": "2 58702  97.4601 157.5010 0004421 343.4234  16.6858 15.24254271105737"
      },
      "geometry": {
        "type": "Point",
        "coordinates": [
          156.43311889559206,
          10.052578822231169
        ]
      }
    },
    {
      "type": "Feature",
      "properties": {
        "norad_id": 58703,
        "name": "TIANMU-1 18",
        "group": "weather",
        "lat": 75.73773583637495,
        "lon": 8.995981301334197,
        "alt_km": 487.0901061430677,
        "timestamp": "2025-12-02T10:50:46.915901+00:00",
        "meta_object_name": "TIANMU-1 18",
        "meta_object_id": "2024-004D",
        "meta_epoch": "2025-12-02T04:05:51.682848",
        "meta_mean_motion": 15.24247227,
        "meta_eccentricity": 0.0003783,
        "meta_inclination": 97.4619,
        "meta_ra_of_asc_node": 157.6773,
        "meta_arg_of_pericenter": 345.1819,
        "meta_mean_anomaly": 14.9307,
        "meta_ephemeris_type": 0,
        "meta_classification_type": "U",
        "meta_norad_cat_id": 58703,
        "meta_element_set_no": 999,
        "meta_rev_at_epoch": 10573,
        "meta_bstar": 0.00033926,
        "meta_mean_motion_dot": 8.209e-05,
        "meta_mean_motion_ddot": 0,
        "tle_line1": "1 58703U 24004D   25336.17073707  .00008209  00000+0  33926-3 0  9998",
        "tle_line2": "2 58703  97.4619 157.6773 0003783 345.1819  14.9307 15.24247227105735"
      },
      "geometry": {
        "type": "Point",
        "coordinates": [
          8.995981301334197,
          75.73773583637495
        ]
      }
    },
    {
      "type": "Feature",
      "properties": {
        "norad_id": 58990,
        "name": "INSAT-3DS",
        "group": "weather",
        "lat": 0.015109122471075574,
        "lon": -43.64597774189996,
        "alt_km": 35783.61048237017,
        "timestamp": "2025-12-02T10:50:46.915913+00:00",
        "meta_object_name": "INSAT-3DS",
        "meta_object_id": "2024-033A",
        "meta_epoch": "2025-12-02T02:11:22.196832",
        "meta_mean_motion": 1.00269802,
        "meta_eccentricity": 0.000158,
        "meta_inclination": 0.0134,
        "meta_ra_of_asc_node": 265.382,
        "meta_arg_of_pericenter": 348.0562,
        "meta_mean_anomaly": 292.7221,
        "meta_ephemeris_type": 0,
        "meta_classification_type": "U",
        "meta_norad_cat_id": 58990,
        "meta_element_set_no": 999,
        "meta_rev_at_epoch": 4509,
        "meta_bstar": 0,
        "meta_mean_motion_dot": -1.35e-06,
        "meta_mean_motion_ddot": 0,
        "tle_line1": "1 58990U 24033A   25336.09122913 -.00000135  00000+0  00000+0 0  9997",
        "tle_line2": "2 58990   0.0134 265.3820 0001580 348.0562 292.7221  1.00269802 45090"
      },
      "geometry": {
        "type": "Point",
        "coordinates": [
          -43.64597774189996,
          0.015109122471075574
        ]
      }
    },
    {
      "type": "Feature",
      "properties": {
        "norad_id": 59051,
        "name": "METEOR-M2 4",
        "group": "weather",
        "lat": 80.7416006168444,
        "lon": -135.96540661267392,
        "alt_km": 807.0505633699368,
        "timestamp": "2025-12-02T10:50:46.915944+00:00",
        "meta_object_name": "METEOR-M2 4",
        "meta_object_id": "2024-039A",
        "meta_epoch": "2025-12-02T03:41:15.168192",
        "meta_mean_motion": 14.22398569,
        "meta_eccentricity": 0.00076,
        "meta_inclination": 98.6752,
        "meta_ra_of_asc_node": 293.2293,
        "meta_arg_of_pericenter": 27.9049,
        "meta_mean_anomaly": 332.2535,
        "meta_ephemeris_type": 0,
        "meta_classification_type": "U",
        "meta_norad_cat_id": 59051,
        "meta_element_set_no": 999,
        "meta_rev_at_epoch": 9125,
        "meta_bstar": 4.3646e-05,
        "meta_mean_motion_dot": 5.4e-07,
        "meta_mean_motion_ddot": 0,
        "tle_line1": "1 59051U 24039A   25336.15364778  .00000054  00000+0  43646-4 0  9993",
        "tle_line2": "2 59051  98.6752 293.2293 0007600  27.9049 332.2535 14.22398569 91252"
      },
      "geometry": {
        "type": "Point",
        "coordinates": [
          -135.96540661267392,
          80.7416006168444
        ]
      }
    },
    {
      "type": "Feature",
      "properties": {
        "norad_id": 60133,
        "name": "GOES 19",
        "group": "weather",
        "lat": 0.0019194103637541877,
        "lon": 159.03654132716733,
        "alt_km": 35790.0867278667,
        "timestamp": "2025-12-02T10:50:46.915958+00:00",
        "meta_object_name": "GOES 19",
        "meta_object_id": "2024-119A",
        "meta_epoch": "2025-12-02T01:26:33.987840",
        "meta_mean_motion": 1.00271424,
        "meta_eccentricity": 0.0001237,
        "meta_inclination": 0.0048,
        "meta_ra_of_asc_node": 192.1354,
        "meta_arg_of_pericenter": 105.0712,
        "meta_mean_anomaly": 80.4283,
        "meta_ephemeris_type": 0,
        "meta_classification_type": "U",
        "meta_norad_cat_id": 60133,
        "meta_element_set_no": 999,
        "meta_rev_at_epoch": 498,
        "meta_bstar": 0,
        "meta_mean_motion_dot": -2.27e-06,
        "meta_mean_motion_ddot": 0,
        "tle_line1": "1 60133U 24119A   25336.06011560 -.00000227  00000+0  00000+0 0  9998",
        "tle_line2": "2 60133   0.0048 192.1354 0001237 105.0712  80.4283  1.00271424  4988"
      },
      "geometry": {
        "type": "Point",
        "coordinates": [
          159.03654132716733,
          0.0019194103637541877
        ]
      }
    },
    {
      "type": "Feature",
      "properties": {
        "norad_id": 65815,
        "name": "FENGYUN 3H",
        "group": "weather",
        "lat": 56.910433559914395,
        "lon": -97.2541292764634,
        "alt_km": 819.7309207969456,
        "timestamp": "2025-12-02T10:50:46.915974+00:00",
        "meta_object_name": "FENGYUN 3H",
        "meta_object_id": "2025-219A",
        "meta_epoch": "2025-12-02T02:07:06.300768",
        "meta_mean_motion": 14.19899654,
        "meta_eccentricity": 6.57e-05,
        "meta_inclination": 98.6568,
        "meta_ra_of_asc_node": 275.9107,
        "meta_arg_of_pericenter": 68.5837,
        "meta_mean_anomaly": 291.541,
        "meta_ephemeris_type": 0,
        "meta_classification_type": "U",
        "meta_norad_cat_id": 65815,
        "meta_element_set_no": 999,
        "meta_rev_at_epoch": 941,
        "meta_bstar": 7.2183e-05,
        "meta_mean_motion_dot": 1.1e-06,
        "meta_mean_motion_ddot": 0,
        "tle_line1": "1 65815U 25219A   25336.08826737  .00000110  00000+0  72183-4 0  9990",
        "tle_line2": "2 65815  98.6568 275.9107 0000657  68.5837 291.5410 14.19899654  9417"
      },
      "geometry": {
        "type": "Point",
        "coordinates": [
          -97.2541292764634,
          56.910433559914395
        ]
      }
    }
  ]
}